start=new Date('2022-05-18T00:00:00.000Z').valueOf();
sats=[{"FILE":"3450137","GP_ID":"203782971","OBJECT_NAME":"STARLINK-1839","CLASSIFICATION_TYPE":"U","APOAPSIS":"549.291","CENTER_NAME":"EARTH","MEAN_MOTION":"15.06398937","MEAN_ANOMALY":"310.7420","PERIAPSIS":"545.143","RA_OF_ASC_NODE":"82.1941","SEMIMAJOR_AXIS":"6925.352","OBJECT_TYPE":"PAYLOAD","TLE_LINE2":"2 47130  53.0549  82.1941 0002995  49.3829 310.7420 15.06398937 81836","REV_AT_EPOCH":"8183","REF_FRAME":"TEME","EPHEMERIS_TYPE":"0","SITE":"AFETR","ARG_OF_PERICENTER":"49.3829","TLE_LINE1":"1 47130U 20088J   22137.32064007  .00003066  00000-0  22466-3 0  9998","DECAY_DATE":null,"EPOCH":"2022-05-17T07:41:43.302048","ECCENTRICITY":"0.00029950","COUNTRY_CODE":"US","LAUNCH_DATE":"2020-11-25","NORAD_CAT_ID":"47130","RCS_SIZE":"LARGE","PERIOD":"95.592","MEAN_ELEMENT_THEORY":"SGP4","OBJECT_ID":"2020-088J","ELEMENT_SET_NO":"999","MEAN_MOTION_DDOT":"0.0000000000000","BSTAR":"0.00022466000000","MEAN_MOTION_DOT":"0.00003066","INCLINATION":"53.0549","TIME_SYSTEM":"UTC"},{"TIME_SYSTEM":"UTC","INCLINATION":"53.0573","MEAN_MOTION_DDOT":"0.0000000000000","BSTAR":"0.00007548600000","ELEMENT_SET_NO":"999","MEAN_MOTION_DOT":"0.00000843","OBJECT_ID":"2020-088M","MEAN_ELEMENT_THEORY":"SGP4","COUNTRY_CODE":"US","ECCENTRICITY":"0.00016500","NORAD_CAT_ID":"47133","RCS_SIZE":"LARGE","PERIOD":"95.592","LAUNCH_DATE":"2020-11-25","EPOCH":"2022-05-17T19:03:45.237312","DECAY_DATE":null,"TLE_LINE1":"1 47133U 20088M   22137.79427358  .00000843  00000-0  75486-4 0  9995","EPHEMERIS_TYPE":"0","REF_FRAME":"TEME","ARG_OF_PERICENTER":"67.0511","SITE":"AFETR","OBJECT_TYPE":"PAYLOAD","REV_AT_EPOCH":"8249","TLE_LINE2":"2 47133  53.0573  60.0715 0001650  67.0511 293.0652 15.06404690 82499","SEMIMAJOR_AXIS":"6925.334","RA_OF_ASC_NODE":"60.0715","PERIAPSIS":"546.057","MEAN_ANOMALY":"293.0652","MEAN_MOTION":"15.06404690","CENTER_NAME":"EARTH","APOAPSIS":"548.342","OBJECT_NAME":"STARLINK-1843","GP_ID":"203789930","CLASSIFICATION_TYPE":"U","FILE":"3450328"},{"INCLINATION":"53.0554","TIME_SYSTEM":"UTC","ELEMENT_SET_NO":"999","BSTAR":"-0.00030352000000","MEAN_MOTION_DDOT":"0.0000000000000","MEAN_MOTION_DOT":"-0.00004800","OBJECT_ID":"2020-088N","MEAN_ELEMENT_THEORY":"SGP4","ECCENTRICITY":"0.00015890","COUNTRY_CODE":"US","LAUNCH_DATE":"2020-11-25","RCS_SIZE":"LARGE","PERIOD":"95.592","NORAD_CAT_ID":"47134","DECAY_DATE":null,"EPOCH":"2022-05-17T05:40:57.239040","TLE_LINE1":"1 47134U 20088N   22137.23677360 -.00004800  00000-0 -30352-3 0  9996","REF_FRAME":"TEME","EPHEMERIS_TYPE":"0","ARG_OF_PERICENTER":"62.1471","SITE":"AFETR","OBJECT_TYPE":"PAYLOAD","TLE_LINE2":"2 47134  53.0554  72.5823 0001589  62.1471 297.9679 15.06401456 81969","REV_AT_EPOCH":"8196","RA_OF_ASC_NODE":"72.5823","SEMIMAJOR_AXIS":"6925.344","MEAN_MOTION":"15.06401456","MEAN_ANOMALY":"297.9679","PERIAPSIS":"546.109","CENTER_NAME":"EARTH","APOAPSIS":"548.310","FILE":"3450137","OBJECT_NAME":"STARLINK-1844","GP_ID":"203782459","CLASSIFICATION_TYPE":"U"},{"EPOCH":"2022-05-17T18:53:08.378592","DECAY_DATE":null,"TLE_LINE1":"1 47135U 20088P   22137.78690253  .00000064  00000-0  23192-4 0  9994","EPHEMERIS_TYPE":"0","REF_FRAME":"TEME","SITE":"AFETR","ARG_OF_PERICENTER":"46.0792","OBJECT_TYPE":"PAYLOAD","REV_AT_EPOCH":"8249","TLE_LINE2":"2 47135  53.0563  60.1223 0001699  46.0792 314.0337 15.06406085 82490","RA_OF_ASC_NODE":"60.1223","SEMIMAJOR_AXIS":"6925.330","PERIAPSIS":"546.018","MEAN_ANOMALY":"314.0337","MEAN_MOTION":"15.06406085","APOAPSIS":"548.372","CENTER_NAME":"EARTH","GP_ID":"203787898","OBJECT_NAME":"STARLINK-1845","CLASSIFICATION_TYPE":"U","FILE":"3450250","INCLINATION":"53.0563","TIME_SYSTEM":"UTC","BSTAR":"0.00002319200000","MEAN_MOTION_DDOT":"0.0000000000000","ELEMENT_SET_NO":"999","MEAN_MOTION_DOT":"0.00000064","MEAN_ELEMENT_THEORY":"SGP4","OBJECT_ID":"2020-088P","COUNTRY_CODE":"US","ECCENTRICITY":"0.00016990","NORAD_CAT_ID":"47135","RCS_SIZE":"LARGE","PERIOD":"95.592","LAUNCH_DATE":"2020-11-25"},{"REV_AT_EPOCH":"8234","TLE_LINE2":"2 47136  53.0559  70.1310 0001724  63.1494 296.9671 15.06429715 82340","OBJECT_TYPE":"PAYLOAD","ARG_OF_PERICENTER":"63.1494","SITE":"AFETR","EPHEMERIS_TYPE":"0","REF_FRAME":"TEME","TLE_LINE1":"1 47136U 20088Q   22137.78597240 -.00005919  00000-0 -37850-3 0  9998","EPOCH":"2022-05-17T18:51:48.015360","DECAY_DATE":null,"GP_ID":"203788409","CLASSIFICATION_TYPE":"U","OBJECT_NAME":"STARLINK-1846","FILE":"3450261","APOAPSIS":"548.316","CENTER_NAME":"EARTH","MEAN_ANOMALY":"296.9671","PERIAPSIS":"545.929","MEAN_MOTION":"15.06429715","SEMIMAJOR_AXIS":"6925.257","RA_OF_ASC_NODE":"70.1310","INCLINATION":"53.0559","TIME_SYSTEM":"UTC","NORAD_CAT_ID":"47136","RCS_SIZE":"LARGE","PERIOD":"95.590","LAUNCH_DATE":"2020-11-25","COUNTRY_CODE":"US","ECCENTRICITY":"0.00017240","OBJECT_ID":"2020-088Q","MEAN_ELEMENT_THEORY":"SGP4","MEAN_MOTION_DOT":"-0.00005919","BSTAR":"-0.00037850000000","MEAN_MOTION_DDOT":"0.0000000000000","ELEMENT_SET_NO":"999"},{"TIME_SYSTEM":"UTC","INCLINATION":"53.0559","BSTAR":"0.00048467000000","MEAN_MOTION_DDOT":"0.0000000000000","ELEMENT_SET_NO":"999","MEAN_MOTION_DOT":"0.00006938","OBJECT_ID":"2020-088R","MEAN_ELEMENT_THEORY":"SGP4","COUNTRY_CODE":"US","ECCENTRICITY":"0.00017710","RCS_SIZE":"LARGE","PERIOD":"95.594","NORAD_CAT_ID":"47137","LAUNCH_DATE":"2020-11-25","EPOCH":"2022-05-17T12:04:28.830144","DECAY_DATE":null,"TLE_LINE1":"1 47137U 20088R   22137.50311146  .00006938  00000-0  48467-3 0  9994","EPHEMERIS_TYPE":"0","REF_FRAME":"TEME","ARG_OF_PERICENTER":"65.6008","SITE":"AFETR","OBJECT_TYPE":"PAYLOAD","REV_AT_EPOCH":"8244","TLE_LINE2":"2 47137  53.0559  61.3873 0001771  65.6008 294.5165 15.06362909 82441","SEMIMAJOR_AXIS":"6925.462","RA_OF_ASC_NODE":"61.3873","PERIAPSIS":"546.101","MEAN_ANOMALY":"294.5165","MEAN_MOTION":"15.06362909","CENTER_NAME":"EARTH","APOAPSIS":"548.554","CLASSIFICATION_TYPE":"U","GP_ID":"203787911","OBJECT_NAME":"STARLINK-1849","FILE":"3450261"},{"OBJECT_ID":"2020-088S","MEAN_ELEMENT_THEORY":"SGP4","MEAN_MOTION_DOT":"-0.00000126","BSTAR":"0.00001041800000","MEAN_MOTION_DDOT":"0.0000000000000","ELEMENT_SET_NO":"999","NORAD_CAT_ID":"47138","RCS_SIZE":"LARGE","PERIOD":"95.592","LAUNCH_DATE":"2020-11-25","COUNTRY_CODE":"US","ECCENTRICITY":"0.00018150","INCLINATION":"53.0580","TIME_SYSTEM":"UTC","MEAN_ANOMALY":"311.1108","PERIAPSIS":"545.966","MEAN_MOTION":"15.06397044","SEMIMAJOR_AXIS":"6925.358","RA_OF_ASC_NODE":"66.2480","GP_ID":"203790121","CLASSIFICATION_TYPE":"U","OBJECT_NAME":"STARLINK-1850","FILE":"3450341","CENTER_NAME":"EARTH","APOAPSIS":"548.480","TLE_LINE1":"1 47138U 20088S   22137.53670595 -.00000126  00000-0  10418-4 0  9994","EPOCH":"2022-05-17T12:52:51.394080","DECAY_DATE":null,"REV_AT_EPOCH":"8238","TLE_LINE2":"2 47138  53.0580  66.2480 0001815  49.0038 311.1108 15.06397044 82386","OBJECT_TYPE":"PAYLOAD","SITE":"AFETR","ARG_OF_PERICENTER":"49.0038","EPHEMERIS_TYPE":"0","REF_FRAME":"TEME"},{"INCLINATION":"53.0548","TIME_SYSTEM":"UTC","LAUNCH_DATE":"2020-11-25","NORAD_CAT_ID":"47139","RCS_SIZE":"LARGE","PERIOD":"95.592","ECCENTRICITY":"0.00018570","COUNTRY_CODE":"US","MEAN_MOTION_DOT":"0.00001695","ELEMENT_SET_NO":"999","MEAN_MOTION_DDOT":"0.0000000000000","BSTAR":"0.00013267000000","MEAN_ELEMENT_THEORY":"SGP4","OBJECT_ID":"2020-088T","SITE":"AFETR","ARG_OF_PERICENTER":"49.7090","REF_FRAME":"TEME","EPHEMERIS_TYPE":"0","TLE_LINE2":"2 47139  53.0548  76.2600 0001857  49.7090 310.4061 15.06404392 82236","REV_AT_EPOCH":"8223","OBJECT_TYPE":"PAYLOAD","DECAY_DATE":null,"EPOCH":"2022-05-17T12:46:12.084384","TLE_LINE1":"1 47139U 20088T   22137.53208431  .00001695  00000-0  13267-3 0  9996","APOAPSIS":"548.486","CENTER_NAME":"EARTH","FILE":"3450341","OBJECT_NAME":"STARLINK-1852","GP_ID":"203790625","CLASSIFICATION_TYPE":"U","RA_OF_ASC_NODE":"76.2600","SEMIMAJOR_AXIS":"6925.335","MEAN_MOTION":"15.06404392","PERIAPSIS":"545.914","MEAN_ANOMALY":"310.4061"},{"INCLINATION":"53.0566","TIME_SYSTEM":"UTC","MEAN_ELEMENT_THEORY":"SGP4","OBJECT_ID":"2020-088V","MEAN_MOTION_DOT":"0.00000237","BSTAR":"0.00003482700000","MEAN_MOTION_DDOT":"0.0000000000000","ELEMENT_SET_NO":"999","RCS_SIZE":"LARGE","NORAD_CAT_ID":"47141","PERIOD":"95.592","LAUNCH_DATE":"2020-11-25","COUNTRY_CODE":"US","ECCENTRICITY":"0.00016070","TLE_LINE1":"1 47141U 20088V   22137.47729281  .00000237  00000-0  34827-4 0  9990","EPOCH":"2022-05-17T11:27:18.098784","DECAY_DATE":null,"REV_AT_EPOCH":"8243","TLE_LINE2":"2 47141  53.0566  61.5125 0001607  70.2843 289.8319 15.06394394 82433","OBJECT_TYPE":"PAYLOAD","ARG_OF_PERICENTER":"70.2843","SITE":"AFETR","EPHEMERIS_TYPE":"0","REF_FRAME":"TEME","MEAN_ANOMALY":"289.8319","PERIAPSIS":"546.118","MEAN_MOTION":"15.06394394","RA_OF_ASC_NODE":"61.5125","SEMIMAJOR_AXIS":"6925.366","GP_ID":"203790150","OBJECT_NAME":"STARLINK-1854","CLASSIFICATION_TYPE":"U","FILE":"3450342","CENTER_NAME":"EARTH","APOAPSIS":"548.344"},{"ECCENTRICITY":"0.00018000","COUNTRY_CODE":"US","LAUNCH_DATE":"2020-11-25","NORAD_CAT_ID":"47143","RCS_SIZE":"LARGE","PERIOD":"95.593","ELEMENT_SET_NO":"999","MEAN_MOTION_DDOT":"0.0000000000000","BSTAR":"0.00016092000000","MEAN_MOTION_DOT":"0.00002115","MEAN_ELEMENT_THEORY":"SGP4","OBJECT_ID":"2020-088X","INCLINATION":"53.0565","TIME_SYSTEM":"UTC","CENTER_NAME":"EARTH","APOAPSIS":"548.491","FILE":"3450344","GP_ID":"203790173","OBJECT_NAME":"STARLINK-1856","CLASSIFICATION_TYPE":"U","RA_OF_ASC_NODE":"60.0867","SEMIMAJOR_AXIS":"6925.379","MEAN_MOTION":"15.06390004","PERIAPSIS":"545.998","MEAN_ANOMALY":"318.7110","REF_FRAME":"TEME","EPHEMERIS_TYPE":"0","SITE":"AFETR","ARG_OF_PERICENTER":"41.4015","OBJECT_TYPE":"PAYLOAD","TLE_LINE2":"2 47143  53.0565  60.0867 0001800  41.4015 318.7110 15.06390004 82476","REV_AT_EPOCH":"8247","DECAY_DATE":null,"EPOCH":"2022-05-17T18:58:27.535008","TLE_LINE1":"1 47143U 20088X   22137.79059647  .00002115  00000-0  16092-3 0  9999"}];
